PCSAT (NO-44)           
1 26931U 01043C   26116.89243188  .00000117  00000+0  74577-4 0  9990
2 26931  67.0527  16.9422 0006503 263.9830  96.0531 14.31935476283100
PROBA-1                 
1 26958U 01049B   26116.95668743  .00003260  00000+0  21360-3 0  9993
2 26958  97.9624 123.7044 0053906 296.9277  62.6448 15.07301802335902
SPOT 5                  
1 27421U 02021A   26116.86038659  .00000517  00000+0  11775-3 0  9998
2 27421  97.9896 157.9876 0131002  76.3261 285.2484 14.54708715255389
FENGYUN 1D              
1 27431U 02024B   26116.85128293  .00000097  00000+0  79707-4 0  9998
2 27431  98.9564 167.4047 0015855  31.1910 329.0198 14.10217506232240
SAUDISAT 1C (SO-50)     
1 27607U 02058C   26116.83731362  .00001136  00000+0  15127-3 0  9995
2 27607  64.5515 287.8458 0075591 271.8075  87.4374 14.82930098256841
CORIOLIS                
1 27640U 03001A   26116.96890211  .00000124  00000+0  78669-4 0  9991
2 27640  98.7144 124.6333 0014045   5.5428 354.5902 14.19930064206951
CUTE-1 (CO-55)          
1 27844U 03031E   26116.75556576  .00000331  00000+0  16208-3 0  9990
2 27844  98.6757 125.9591 0009077 342.2770  17.8091 14.24302739184351
CUBESAT XI-IV (CO-57)   
1 27848U 03031J   26116.50745738  .00000273  00000+0  13914-3 0  9993
2 27848  98.6789 125.4683 0009403   1.8754 358.2459 14.23592208184025
MOZHAETS 4 (RS22)       
1 27939U 03042A   26116.95800799  .00001204  00000+0  19396-3 0  9999
2 27939  98.3472 299.8733 0012530  73.0488  82.9526 14.73372911208007
IRS-P6 (RESOURCESAT-1)  
1 28051U 03046A   26116.95706396  .00000120  00000+0  53858-4 0  9995
2 28051  98.1961 155.9694 0065041 135.1334 320.7425 14.36142229173173
SAUDISAT 2              
1 28371U 04025F   26116.85495256  .00000310  00000+0  80327-4 0  9999
2 28371  98.5511 115.5129 0025965  94.2845 266.1320 14.56651148158279
COSMOS 2407             
1 28380U 04028A   26116.95887563  .00000080  00000+0  65580-4 0  9997
2 28380  82.9568 112.7774 0040148  37.4445  21.2913 13.76330083 92838
COSMOS 2414             
1 28521U 05002A   26116.84750495  .00000088  00000+0  60109-4 0  9998
2 28521  82.9475  82.4777 0041418 114.8234 245.7246 13.87920669 76690
INMARSAT 4-F1           
1 28628U 05009A   26116.75669878  .00000024  00000+0  00000+0 0  9996
2 28628   5.1009  42.6887 0002978 348.8748 273.6963  1.00274388 77155
HAMSAT (VO-52)          
1 28650U 05017B   26116.94760432  .00005151  00000+0  32659-3 0  9994
2 28650  97.9943 137.8560 0018892 206.2783 153.7488 15.09262176139031
NOAA 18                 
1 28654U 05018A   26116.88114468  .00000044  00000+0  46249-4 0  9991
2 28654  98.8112 197.3007 0013231 298.7752  61.2091 14.13720023 79067
SJ-7                    
1 28737U 05024A   26116.64891637  .00009085  00000+0  41451-3 0  9997
2 28737  97.7337 145.3875 0015367 205.3847 154.6634 15.20757240140196
