[{"OBJECT_NAME":"PCSAT (NO-44)","OBJECT_ID":"2001-043C","EPOCH":"2026-04-26T21:25:06.114432","MEAN_MOTION":14.31935476,"ECCENTRICITY":0.00065033,"INCLINATION":67.0527,"RA_OF_ASC_NODE":16.9422,"ARG_OF_PERICENTER":263.983,"MEAN_ANOMALY":96.0531,"EPHEMERIS_TYPE":0,"CLASSIFICATION_TYPE":"U","NORAD_CAT_ID":26931,"ELEMENT_SET_NO":999,"REV_AT_EPOCH":28310,"BSTAR":7.457699e-5,"MEAN_MOTION_DOT":1.17e-6,"MEAN_MOTION_DDOT":0},{"OBJECT_NAME":"PROBA-1","OBJECT_ID":"2001-049B","EPOCH":"2026-04-26T22:57:37.793952","MEAN_MOTION":15.07301802,"ECCENTRICITY":0.00539065,"INCLINATION":97.9624,"RA_OF_ASC_NODE":123.7044,"ARG_OF_PERICENTER":296.9277,"MEAN_ANOMALY":62.6448,"EPHEMERIS_TYPE":0,"CLASSIFICATION_TYPE":"U","NORAD_CAT_ID":26958,"ELEMENT_SET_NO":999,"REV_AT_EPOCH":33590,"BSTAR":0.00021359567,"MEAN_MOTION_DOT":3.26e-5,"MEAN_MOTION_DDOT":0},{"OBJECT_NAME":"SPOT 5","OBJECT_ID":"2002-021A","EPOCH":"2026-04-26T20:38:57.401376","MEAN_MOTION":14.54708715,"ECCENTRICITY":0.01310024,"INCLINATION":97.9896,"RA_OF_ASC_NODE":157.9876,"ARG_OF_PERICENTER":76.3261,"MEAN_ANOMALY":285.2484,"EPHEMERIS_TYPE":0,"CLASSIFICATION_TYPE":"U","NORAD_CAT_ID":27421,"ELEMENT_SET_NO":999,"REV_AT_EPOCH":25538,"BSTAR":0.00011774975,"MEAN_MOTION_DOT":5.17e-6,"MEAN_MOTION_DDOT":0},{"OBJECT_NAME":"FENGYUN 1D","OBJECT_ID":"2002-024B","EPOCH":"2026-04-26T20:25:50.845152","MEAN_MOTION":14.10217506,"ECCENTRICITY":0.00158559,"INCLINATION":98.9564,"RA_OF_ASC_NODE":167.4047,"ARG_OF_PERICENTER":31.191,"MEAN_ANOMALY":329.0198,"EPHEMERIS_TYPE":0,"CLASSIFICATION_TYPE":"U","NORAD_CAT_ID":27431,"ELEMENT_SET_NO":999,"REV_AT_EPOCH":23224,"BSTAR":7.9706578e-5,"MEAN_MOTION_DOT":9.7e-7,"MEAN_MOTION_DDOT":0},{"OBJECT_NAME":"SAUDISAT 1C (SO-50)","OBJECT_ID":"2002-058C","EPOCH":"2026-04-26T20:05:43.896768","MEAN_MOTION":14.82930098,"ECCENTRICITY":0.00755917,"INCLINATION":64.5515,"RA_OF_ASC_NODE":287.8458,"ARG_OF_PERICENTER":271.8075,"MEAN_ANOMALY":87.4374,"EPHEMERIS_TYPE":0,"CLASSIFICATION_TYPE":"U","NORAD_CAT_ID":27607,"ELEMENT_SET_NO":999,"REV_AT_EPOCH":25684,"BSTAR":0.00015126916,"MEAN_MOTION_DOT":1.136e-5,"MEAN_MOTION_DDOT":0},{"OBJECT_NAME":"CORIOLIS","OBJECT_ID":"2003-001A","EPOCH":"2026-04-26T23:15:13.142304","MEAN_MOTION":14.19930064,"ECCENTRICITY":0.00140452,"INCLINATION":98.7144,"RA_OF_ASC_NODE":124.6333,"ARG_OF_PERICENTER":5.5428,"MEAN_ANOMALY":354.5902,"EPHEMERIS_TYPE":0,"CLASSIFICATION_TYPE":"U","NORAD_CAT_ID":27640,"ELEMENT_SET_NO":999,"REV_AT_EPOCH":20695,"BSTAR":7.8669266e-5,"MEAN_MOTION_DOT":1.24e-6,"MEAN_MOTION_DDOT":0},{"OBJECT_NAME":"CUTE-1 (CO-55)","OBJECT_ID":"2003-031E","EPOCH":"2026-04-26T18:08:00.881664","MEAN_MOTION":14.24302739,"ECCENTRICITY":0.00090776,"INCLINATION":98.6757,"RA_OF_ASC_NODE":125.9591,"ARG_OF_PERICENTER":342.277,"MEAN_ANOMALY":17.8091,"EPHEMERIS_TYPE":0,"CLASSIFICATION_TYPE":"U","NORAD_CAT_ID":27844,"ELEMENT_SET_NO":999,"REV_AT_EPOCH":18435,"BSTAR":0.00016207951,"MEAN_MOTION_DOT":3.31e-6,"MEAN_MOTION_DDOT":0},{"OBJECT_NAME":"CUBESAT XI-IV (CO-57)","OBJECT_ID":"2003-031J","EPOCH":"2026-04-26T12:10:44.317632","MEAN_MOTION":14.23592208,"ECCENTRICITY":0.0009403,"INCLINATION":98.6789,"RA_OF_ASC_NODE":125.4683,"ARG_OF_PERICENTER":1.8754,"MEAN_ANOMALY":358.2459,"EPHEMERIS_TYPE":0,"CLASSIFICATION_TYPE":"U","NORAD_CAT_ID":27848,"ELEMENT_SET_NO":999,"REV_AT_EPOCH":18402,"BSTAR":0.00013913641,"MEAN_MOTION_DOT":2.73e-6,"MEAN_MOTION_DDOT":0},{"OBJECT_NAME":"MOZHAETS 4 (RS22)","OBJECT_ID":"2003-042A","EPOCH":"2026-04-26T22:59:31.890336","MEAN_MOTION":14.73372911,"ECCENTRICITY":0.00125307,"INCLINATION":98.3472,"RA_OF_ASC_NODE":299.8733,"ARG_OF_PERICENTER":73.0488,"MEAN_ANOMALY":82.9526,"EPHEMERIS_TYPE":0,"CLASSIFICATION_TYPE":"U","NORAD_CAT_ID":27939,"ELEMENT_SET_NO":999,"REV_AT_EPOCH":20800,"BSTAR":0.00019395657,"MEAN_MOTION_DOT":1.204e-5,"MEAN_MOTION_DDOT":0},{"OBJECT_NAME":"IRS-P6 (RESOURCESAT-1)","OBJECT_ID":"2003-046A","EPOCH":"2026-04-26T22:58:10.326144","MEAN_MOTION":14.36142229,"ECCENTRICITY":0.00650412,"INCLINATION":98.1961,"RA_OF_ASC_NODE":155.9694,"ARG_OF_PERICENTER":135.1334,"MEAN_ANOMALY":320.7425,"EPHEMERIS_TYPE":0,"CLASSIFICATION_TYPE":"U","NORAD_CAT_ID":28051,"ELEMENT_SET_NO":999,"REV_AT_EPOCH":17317,"BSTAR":5.3857833e-5,"MEAN_MOTION_DOT":1.2e-6,"MEAN_MOTION_DDOT":0},{"OBJECT_NAME":"SAUDISAT 2","OBJECT_ID":"2004-025F","EPOCH":"2026-04-26T20:31:07.901184","MEAN_MOTION":14.56651148,"ECCENTRICITY":0.00259657,"INCLINATION":98.5511,"RA_OF_ASC_NODE":115.5129,"ARG_OF_PERICENTER":94.2845,"MEAN_ANOMALY":266.132,"EPHEMERIS_TYPE":0,"CLASSIFICATION_TYPE":"U","NORAD_CAT_ID":28371,"ELEMENT_SET_NO":999,"REV_AT_EPOCH":15827,"BSTAR":8.032697e-5,"MEAN_MOTION_DOT":3.1e-6,"MEAN_MOTION_DDOT":0},{"OBJECT_NAME":"COSMOS 2407","OBJECT_ID":"2004-028A","EPOCH":"2026-04-26T23:00:46.854432","MEAN_MOTION":13.76330083,"ECCENTRICITY":0.00401483,"INCLINATION":82.9568,"RA_OF_ASC_NODE":112.7774,"ARG_OF_PERICENTER":37.4445,"MEAN_ANOMALY":21.2913,"EPHEMERIS_TYPE":0,"CLASSIFICATION_TYPE":"U","NORAD_CAT_ID":28380,"ELEMENT_SET_NO":999,"REV_AT_EPOCH":9283,"BSTAR":6.5580304e-5,"MEAN_MOTION_DOT":8.0e-7,"MEAN_MOTION_DDOT":0},{"OBJECT_NAME":"COSMOS 2414","OBJECT_ID":"2005-002A","EPOCH":"2026-04-26T20:20:24.427680","MEAN_MOTION":13.87920669,"ECCENTRICITY":0.0041418,"INCLINATION":82.9475,"RA_OF_ASC_NODE":82.4777,"ARG_OF_PERICENTER":114.8234,"MEAN_ANOMALY":245.7246,"EPHEMERIS_TYPE":0,"CLASSIFICATION_TYPE":"U","NORAD_CAT_ID":28521,"ELEMENT_SET_NO":999,"REV_AT_EPOCH":7669,"BSTAR":6.0109481e-5,"MEAN_MOTION_DOT":8.8e-7,"MEAN_MOTION_DDOT":0},{"OBJECT_NAME":"INMARSAT 4-F1","OBJECT_ID":"2005-009A","EPOCH":"2026-04-26T18:09:38.774592","MEAN_MOTION":1.00274388,"ECCENTRICITY":0.0002978,"INCLINATION":5.1009,"RA_OF_ASC_NODE":42.6887,"ARG_OF_PERICENTER":348.8748,"MEAN_ANOMALY":273.6963,"EPHEMERIS_TYPE":0,"CLASSIFICATION_TYPE":"U","NORAD_CAT_ID":28628,"ELEMENT_SET_NO":999,"REV_AT_EPOCH":7715,"BSTAR":0,"MEAN_MOTION_DOT":2.4e-7,"MEAN_MOTION_DDOT":0},{"OBJECT_NAME":"HAMSAT (VO-52)","OBJECT_ID":"2005-017B","EPOCH":"2026-04-26T22:44:33.013248","MEAN_MOTION":15.09262176,"ECCENTRICITY":0.00188922,"INCLINATION":97.9943,"RA_OF_ASC_NODE":137.856,"ARG_OF_PERICENTER":206.2783,"MEAN_ANOMALY":153.7488,"EPHEMERIS_TYPE":0,"CLASSIFICATION_TYPE":"U","NORAD_CAT_ID":28650,"ELEMENT_SET_NO":999,"REV_AT_EPOCH":13903,"BSTAR":0.00032659048,"MEAN_MOTION_DOT":5.151e-5,"MEAN_MOTION_DDOT":0},{"OBJECT_NAME":"NOAA 18","OBJECT_ID":"2005-018A","EPOCH":"2026-04-26T21:08:50.900352","MEAN_MOTION":14.13720023,"ECCENTRICITY":0.00132312,"INCLINATION":98.8112,"RA_OF_ASC_NODE":197.3007,"ARG_OF_PERICENTER":298.7752,"MEAN_ANOMALY":61.2091,"EPHEMERIS_TYPE":0,"CLASSIFICATION_TYPE":"U","NORAD_CAT_ID":28654,"ELEMENT_SET_NO":999,"REV_AT_EPOCH":7906,"BSTAR":4.6249171e-5,"MEAN_MOTION_DOT":4.4e-7,"MEAN_MOTION_DDOT":0},{"OBJECT_NAME":"SJ-7","OBJECT_ID":"2005-024A","EPOCH":"2026-04-26T15:34:26.374368","MEAN_MOTION":15.2075724,"ECCENTRICITY":0.00153674,"INCLINATION":97.7337,"RA_OF_ASC_NODE":145.3875,"ARG_OF_PERICENTER":205.3847,"MEAN_ANOMALY":154.6634,"EPHEMERIS_TYPE":0,"CLASSIFICATION_TYPE":"U","NORAD_CAT_ID":28737,"ELEMENT_SET_NO":999,"REV_AT_EPOCH":14019,"BSTAR":0.00041451274,"MEAN_MOTION_DOT":9.085e-5,"MEAN_MOTION_DDOT":0}]
